NORAD_CAT_ID,OBJECT_NAME,OBJECT_TYPE,EPOCH,MEAN_MOTION,ECCENTRICITY,INCLINATION,RA_OF_ASC_NODE,ARG_OF_PERICENTER,MEAN_ANOMALY,BSTAR,MEAN_MOTION_DOT,MEAN_MOTION_DDOT,TLE_LINE0,TLE_LINE1,TLE_LINE2,SEMIMAJOR_AXIS,PERIOD,APOGEE,PERIGEE,DECAYED
52287.0,STARLINK-3822,PAYLOAD,2024-06-12 01:54:33,15.08854783,0.0001563,53.2188,82.4919,105.7348,254.3816,0.00022777,3.34e-05,0.0,0 STARLINK-3822,1 52287U 22041AC  24164.07955633  .00003340  00000-0  22777-3 0  9996,2 52287  53.2188  82.4919 0001563 105.7348 254.3816 15.08854783119637,6917.835,95.437,540.781,538.619,0.0
52287.0,STARLINK-3822,PAYLOAD,2024-06-12 11:26:52,15.08851315,0.0001098,53.2175,80.7047,90.5929,269.5188,9.5354e-05,1.231e-05,0.0,0 STARLINK-3822,1 52287U 22041AC  24164.47699888  .00001231  00000-0  95354-4 0  9996,2 52287  53.2175  80.7047 0001098  90.5929 269.5188 15.08851315119699,6917.846,95.437,540.47,538.951,0.0
52287.0,STARLINK-3822,PAYLOAD,2024-06-12 22:34:36,15.08823683,0.0002004,53.218,78.6214,78.466,281.6557,0.00023925,3.52e-05,0.0,0 STARLINK-3822,1 52287U 22041AC  24164.94069746  .00003520  00000-0  23925-3 0  9999,2 52287  53.2180  78.6214 0002004  78.4660 281.6557 15.08823683118547,6917.93,95.439,541.182,538.409,0.0
52287.0,STARLINK-3822,PAYLOAD,2024-06-13 03:20:45,15.08843415,0.0001682,53.2193,77.7296,82.2497,277.8686,6.1973e-05,6.98e-06,0.0,0 STARLINK-3822,1 52287U 22041AC  24165.13941169  .00000698  00000-0  61973-4 0  9998,2 52287  53.2193  77.7296 0001682  82.2497 277.8686 15.08843415119796,6917.87,95.437,540.899,538.571,0.0
52287.0,STARLINK-3822,PAYLOAD,2024-06-13 11:17:40,15.08843324,0.0001416,53.218,76.2423,88.093,272.0224,2.7441e-05,1.49e-06,0.0,0 STARLINK-3822,1 52287U 22041AC  24165.47061083  .00000149  00000-0  27441-4 0  9996,2 52287  53.2180  76.2423 0001416  88.0930 272.0224 15.08843324118624,6917.87,95.437,540.715,538.756,0.0
52287.0,STARLINK-3822,PAYLOAD,2024-06-13 22:25:22,15.08853478,0.0001639,53.2184,74.1648,92.9447,267.1733,-3.7118e-05,-8.79e-06,0.0,0 STARLINK-3822,1 52287U 22041AC  24165.93428512 -.00000879  00000-0 -37118-4 0  9995,2 52287  53.2184  74.1648 0001639  92.9447 267.1733 15.08853478118696,6917.839,95.437,540.838,538.57,0.0
52287.0,STARLINK-3822,PAYLOAD,2024-06-14 11:08:26,15.08856203,0.0001451,53.2188,71.7819,84.2532,275.8626,-0.00018521,-3.236e-05,0.0,0 STARLINK-3822,1 52287U 22041AC  24166.46420112 -.00003236  00000-0 -18521-3 0  9998,2 52287  53.2188  71.7819 0001451  84.2532 275.8626 15.08856203118779,6917.831,95.437,540.7,538.692,0.0
52287.0,STARLINK-3822,PAYLOAD,2024-06-14 22:16:09,15.08834796,0.0001827,53.2193,69.7,86.5803,273.5398,3.0268e-05,1.94e-06,0.0,0 STARLINK-3822,1 52287U 22041AC  24166.92789082  .00000194  00000-0  30268-4 0  9994,2 52287  53.2193  69.7000 0001827  86.5803 273.5398 15.08834796118849,6917.896,95.438,541.025,538.497,0.0
52287.0,STARLINK-3822,PAYLOAD,2024-06-14 23:51:32,15.08839808,0.0001594,53.2185,69.4018,91.2463,268.8711,-2.489e-06,-3.28e-06,0.0,0 STARLINK-3822,1 52287U 22041AC  24166.99412833 -.00000328  00000-0 -24890-5 0  9994,2 52287  53.2185  69.4018 0001594  91.2463 268.8711 15.08839808118858,6917.881,95.438,540.849,538.643,0.0
52287.0,STARLINK-3822,PAYLOAD,2024-06-15 22:06:56,15.08845478,0.0001488,53.2174,65.2402,93.9344,266.1818,5.4626e-05,5.82e-06,0.0,0 STARLINK-3822,1 52287U 22041AC  24167.92148169  .00000582  00000-0  54626-4 0  9995,2 52287  53.2174  65.2402 0001488  93.9344 266.1818 15.08845478118990,6917.864,95.437,540.758,538.699,0.0
52287.0,STARLINK-3822,PAYLOAD,2024-06-15 23:42:18,15.08847359,0.0001487,53.2185,64.9396,102.1494,257.9665,6.5717e-05,7.58e-06,0.0,0 STARLINK-3822,1 52287U 22041AC  24167.98771924  .00000758  00000-0  65717-4 0  9990,2 52287  53.2185  64.9396 0001487 102.1494 257.9665 15.08847359119009,6917.858,95.437,540.752,538.694,0.0
52287.0,STARLINK-3822,PAYLOAD,2024-06-16 21:57:43,15.08835949,0.0001558,53.219,60.7799,98.3538,261.7631,5.6825e-05,6.16e-06,0.0,0 STARLINK-3822,1 52287U 22041AC  24168.91508736  .00000616  00000-0  56825-4 0  9996,2 52287  53.2190  60.7799 0001558  98.3538 261.7631 15.08835949119143,6917.893,95.438,540.836,538.68,0.0
52287.0,STARLINK-3822,PAYLOAD,2024-06-17 21:48:31,15.08838178,0.0001276,53.2181,56.3192,90.6372,269.4767,-6.0094e-05,-1.244e-05,0.0,0 STARLINK-3822,1 52287U 22041AC  24169.90869229 -.00001244  00000-0 -60094-4 0  9996,2 52287  53.2181  56.3192 0001276  90.6372 269.4767 15.08838178119297,6917.886,95.438,540.634,538.868,0.0
52287.0,STARLINK-3822,PAYLOAD,2024-06-17 23:23:53,15.08839794,0.0001345,53.2183,56.0228,98.5521,261.5623,-3.2809e-05,-8.1e-06,0.0,0 STARLINK-3822,1 52287U 22041AC  24169.97493031 -.00000810  00000-0 -32809-4 0  9998,2 52287  53.2183  56.0228 0001345  98.5521 261.5623 15.08839794120523,6917.881,95.438,540.676,538.816,0.0
52287.0,STARLINK-3822,PAYLOAD,2024-06-18 08:56:12,15.08848401,0.00014,53.2191,54.2412,84.7469,275.3683,-3.8105e-05,-8.94e-06,0.0,0 STARLINK-3822,1 52287U 22041AC  24170.37236495 -.00000894  00000-0 -38105-4 0  9990,2 52287  53.2191  54.2412 0001400  84.7469 275.3683 15.08848401120587,6917.855,95.437,540.688,538.751,0.0
52287.0,STARLINK-3822,PAYLOAD,2024-06-18 20:03:54,15.08835984,0.0001451,53.2195,52.1568,80.6262,279.4894,1.8747e-05,1e-07,0.0,0 STARLINK-3822,1 52287U 22041AC  24170.83605219  .00000010  00000-0  18747-4 0  9993,2 52287  53.2195  52.1568 0001451  80.6262 279.4894 15.08835984120651,6917.893,95.438,540.761,538.754,0.0
52287.0,STARLINK-3822,PAYLOAD,2024-06-18 23:14:40,15.08839652,0.0001413,53.2194,51.5666,93.8447,266.2706,7.184e-05,8.56e-06,0.0,0 STARLINK-3822,1 52287U 22041AC  24170.96852815  .00000856  00000-0  71840-4 0  9994,2 52287  53.2194  51.5666 0001413  93.8447 266.2706 15.08839652119459,6917.881,95.438,540.724,538.769,0.0
52287.0,STARLINK-3822,PAYLOAD,2024-06-19 21:30:05,15.08836941,0.0001381,53.2187,47.4039,97.0339,263.081,1.1647e-05,-1.03e-06,0.0,0 STARLINK-3822,1 52287U 22041AC  24171.89589395 -.00000103  00000-0  11647-4 0  9992,2 52287  53.2187  47.4039 0001381  97.0339 263.0810 15.08836941120810,6917.89,95.438,540.71,538.799,0.0
52287.0,STARLINK-3822,PAYLOAD,2024-06-20 08:37:47,15.0883836,0.000137,53.2179,45.3216,99.7871,260.3276,-1.4298e-05,-5.15e-06,0.0,0 STARLINK-3822,1 52287U 22041AC  24172.35957392 -.00000515  00000-0 -14298-4 0  9993,2 52287  53.2179  45.3216 0001370  99.7871 260.3276 15.08838360119667,6917.885,95.438,540.698,538.803,0.0
52287.0,STARLINK-3822,PAYLOAD,2024-06-20 21:20:52,15.08841375,0.0001452,53.2176,42.9423,96.7269,263.3888,3.9516e-05,3.41e-06,0.0,0 STARLINK-3822,1 52287U 22041AC  24172.88949092  .00000341  00000-0  39516-4 0  9994,2 52287  53.2176  42.9423 0001452  96.7269 263.3888 15.08841375119747,6917.876,95.437,540.746,538.737,0.0
52287.0,STARLINK-3822,PAYLOAD,2024-06-20 22:56:15,15.08814912,0.0001572,53.2175,42.6446,99.9979,260.1191,0.00041303,6.287e-05,0.0,0 STARLINK-3822,1 52287U 22041AC  24172.95573389  .00006287  00000-0  41303-3 0  9995,2 52287  53.2175  42.6446 0001572  99.9979 260.1191 15.08814912120970,6917.957,95.439,540.91,538.735,0.0
52287.0,STARLINK-3822,PAYLOAD,2024-06-21 14:50:06,15.08839882,0.0001433,53.2179,39.6688,91.5882,268.5275,4.6607e-05,4.54e-06,0.0,0 STARLINK-3822,1 52287U 22041AC  24173.61813194  .00000454  00000-0  46607-4 0  9993,2 52287  53.2179  39.6688 0001433  91.5882 268.5275 15.08839882119858,6917.881,95.438,540.737,538.754,0.0
52287.0,STARLINK-3822,PAYLOAD,2024-06-21 21:11:38,15.08841673,0.0001452,53.2179,38.4796,91.8643,268.2515,5.8128e-05,6.37e-06,0.0,0 STARLINK-3822,1 52287U 22041AC  24173.88309021  .00000637  00000-0  58128-4 0  9995,2 52287  53.2179  38.4796 0001452  91.8643 268.2515 15.08841673121111,6917.875,95.437,540.745,538.736,0.0
52287.0,STARLINK-3822,PAYLOAD,2024-06-21 22:47:02,15.08843234,0.0001424,53.2178,38.182,91.1889,268.9266,6.8869e-05,8.08e-06,0.0,0 STARLINK-3822,1 52287U 22041AC  24173.94932878  .00000808  00000-0  68869-4 0  9997,2 52287  53.2178  38.1820 0001424  91.1889 268.9266 15.08843234119908,6917.871,95.437,540.721,538.75,0.0
52287.0,STARLINK-3822,PAYLOAD,2024-06-22 14:40:53,15.08841557,0.000169,53.2184,35.2104,79.0484,281.0698,2.3915e-05,9.3e-07,0.0,0 STARLINK-3822,1 52287U 22041AC  24174.61173273  .00000093  00000-0  23915-4 0  9997,2 52287  53.2184  35.2104 0001690  79.0484 281.0698 15.08841557120003,6917.876,95.437,540.91,538.572,0.0
52287.0,STARLINK-3822,PAYLOAD,2024-06-22 21:02:26,15.08841854,0.000166,53.2184,34.021,72.5804,287.5369,1.309e-05,-8e-07,0.0,0 STARLINK-3822,1 52287U 22041AC  24174.87669258 -.00000080  00000-0  13090-4 0  9998,2 52287  53.2184  34.0210 0001660  72.5804 287.5369 15.08841854120049,6917.875,95.437,540.888,538.591,0.0
52287.0,STARLINK-3822,PAYLOAD,2024-06-23 14:31:40,15.08837868,0.0001607,53.2181,30.7497,77.6857,282.4315,-1.4637e-06,-3.11e-06,0.0,0 STARLINK-3822,1 52287U 22041AC  24175.60533509 -.00000311  00000-0 -14637-5 0  9996,2 52287  53.2181  30.7497 0001607  77.6857 282.4315 15.08837868120158,6917.887,95.438,540.864,538.64,0.0
52287.0,STARLINK-3822,PAYLOAD,2024-06-23 20:53:13,15.0883605,0.0001444,53.2181,29.5598,87.4589,272.6568,-2.0336e-05,-6.12e-06,0.0,0 STARLINK-3822,1 52287U 22041AC  24175.87029625 -.00000612  00000-0 -20336-4 0  9990,2 52287  53.2181  29.5598 0001444  87.4589 272.6568 15.08836050121419,6917.892,95.438,540.756,538.759,0.0
52287.0,STARLINK-3822,PAYLOAD,2024-06-24 00:04:00,15.08834782,0.0001471,53.2182,28.9655,84.4302,275.6858,-2.8272e-05,-7.38e-06,0.0,0 STARLINK-3822,1 52287U 22041AC  24176.00277781 -.00000738  00000-0 -28272-4 0  9990,2 52287  53.2182  28.9655 0001471  84.4302 275.6858 15.08834782120219,6917.896,95.438,540.779,538.744,0.0
52287.0,STARLINK-3822,PAYLOAD,2024-06-24 20:44:00,15.08841281,0.0001422,53.2184,25.1004,87.9253,272.1902,6.0031e-05,6.68e-06,0.0,0 STARLINK-3822,1 52287U 22041AC  24176.86389146  .00000668  00000-0  60031-4 0  9992,2 52287  53.2184  25.1004 0001422  87.9253 272.1902 15.08841281121560,6917.876,95.437,540.725,538.758,0.0
